STARLINK-37631          
1 69369U 26123S   26162.91668981 -.00395688  64208-4 -86436-3 0  9997
2 69369  53.1571 267.9914 0000892  46.2029  17.4650 15.97378824  2354
STARLINK-37673          
1 69370U 26123T   26162.91668981 -.01177218  43773-3 -24910-2 0  9998
2 69370  53.1569 267.9731 0001024  47.4406  25.0410 15.98141707  2358
STARLINK-37645          
1 69371U 26123U   26162.91668981 -.02064924  12281-2 -44929-2 0  9990
2 69371  53.1570 267.9659 0001073  36.4519  39.3738 15.97772389  2353
STARLINK-37688          
1 69372U 26123V   26162.91668981 -.01872159  10097-2 -43187-2 0  9995
2 69372  53.1569 267.9095 0000980  52.2865  50.5107 15.96691409  2359
STARLINK-37685          
1 69373U 26123W   26162.91668981 -.01866140  10032-2 -43158-2 0  9996
2 69373  53.1567 267.9005 0001038  39.5497  67.5588 15.96643982  2357
STARLINK-37632          
1 69374U 26123X   26162.91668981 -.01878292  10146-2 -43609-2 0  9995
2 69374  53.1567 267.8933 0001114  49.7522  60.8284 15.96573938  2301
STARLINK-37454          
1 69375U 26123Y   26162.91668981 -.01868610  10050-2 -43368-2 0  9995
2 69375  53.1566 267.8782 0001054  49.4300  68.2698 15.96579567  2447
STARLINK-37485          
1 69376U 26123Z   26162.91668981 -.01869956  10067-2 -43322-2 0  9998
2 69376  53.1565 267.8695 0001097  45.1561  76.6551 15.96612128  2441
STARLINK-37439          
1 69377U 26123AA  26162.91668981 -.01840738  99565-3 -38814-2 0  9997
2 69377  53.1560 267.8364 0001137  55.0348  82.6789 15.98308491  2300
STARLINK-37376          
1 69378U 26123AB  26162.91668981 -.01826570  97120-3 -40636-2 0  9996
2 69378  53.1561 267.8400 0001133  48.2885  87.5726 15.97342946  2441
STARLINK-37383          
1 69379U 26123AC  26162.91668981 -.01846671  10009-2 -39098-2 0  9991
2 69379  53.1554 267.7906 0001068  52.3192 107.0290 15.98236255  2448
STARLINK-37411          
1 69380U 26123AD  26162.91668981 -.01844348  98987-3 -40825-2 0  9994
2 69380  53.1560 267.8257 0001084  47.8120  94.6843 15.97436689  2442
STARLINK-37427          
1 69381U 26123AE  26162.91668981 -.01785592  93865-3 -38094-2 0  9995
2 69381  53.1558 267.8039 0001076  48.8355 104.1975 15.98092058  2352
QIANFAN-165             
1 69382U 26124A   26162.82900079  .00000115  00000+0  42238-4 0  9994
2 69382  88.9985   2.6492 0002619 184.6823 175.4347 14.25644253  1053
QIANFAN-166             
1 69383U 26124B   26162.47731472  .00000241  00000+0  95780-4 0  9995
2 69383  88.9986   2.6893 0001742 196.1379 163.9759 14.25623990  1009
QIANFAN-167             
1 69384U 26124C   26161.91354878 -.01561002  00000+0 -78871+0 0  9992
2 69384  88.9989   2.7536 0003604 293.9957  66.0856 14.19974316   920
QIANFAN-168             
1 69385U 26124D   26161.84405580 -.01914124  00000+0 -92276+0 0  9994
2 69385  88.9981   2.7619 0005745 147.2677 212.8872 14.22619835   917
QIANFAN-169             
1 69386U 26124E   26161.91396583 -.01854010  00000+0 -89812+0 0  9994
2 69386  88.9980   2.7539 0007214 173.4169 186.7118 14.22235421   926
QIANFAN-170             
1 69387U 26124F   26161.84400992 -.01927219  00000+0 -92774+0 0  9990
2 69387  88.9981   2.7622 0007343 135.9027 224.2751 14.22716838   916
QIANFAN-171             
1 69388U 26124G   26161.84356534 -.01812081  00000+0 -88070+0 0  9997
2 69388  88.9982   2.7620 0009050 172.8482 187.2840 14.21967593   910
QIANFAN-172             
1 69389U 26124H   26161.84417786 -.01974196  00000+0 -94647+0 0  9998
2 69389  88.9979   2.7620 0006571 144.9469 215.2157 14.23032199   917
QIANFAN-173             
1 69390U 26124J   26161.84404007 -.01427296  00000+0 -67102+0 0  9992
2 69390  88.9989   2.7662 0021556  27.5748 332.6581 14.20891229   911
QIANFAN-174             
1 69391U 26124K   26162.54643547  .00000214  00000+0  82627-4 0  9993
2 69391  88.9986   2.6812 0001775 165.3397 194.7848 14.26655241  1010
QIANFAN-175             
1 69392U 26124L   26161.98357005 -.01762832  00000+0 -86426+0 0  9992
2 69392  88.9981   2.7458 0008895 183.7161 176.3966 14.22043621   932
QIANFAN-176             
1 69393U 26124M   26161.98347193 -.01637140  00000+0 -80748+0 0  9994
2 69393  88.9980   2.7458 0011326 168.0633 192.0828 14.21408117   931
QIANFAN-177             
1 69394U 26124N   26162.96716446  .00000141  00000+0  52185-4 0  9996
2 69394  88.9985   2.6327 0001734 165.7716 194.3527 14.26675045  1077
QIANFAN-178             
1 69395U 26124P   26161.98351871 -.01700532  00000+0 -83847+0 0  9993
2 69395  88.9981   2.7458 0009243 179.2577 180.8630 14.21589410   932
QIANFAN-179             
1 69396U 26124Q   26162.82685183  .00000115  00000+0  41495-4 0  9999
2 69396  88.9985   2.6488 0001675 166.4737 193.6502 14.26682037  1054
QIANFAN-180             
1 69397U 26124R   26162.96709880  .00000147  00000+0  54698-4 0  9990
2 69397  88.9985   2.6328 0001681 167.2065 192.9172 14.26687636  1075
