OBJECT_NAME,OBJECT_ID,EPOCH,MEAN_MOTION,ECCENTRICITY,INCLINATION,RA_OF_ASC_NODE,ARG_OF_PERICENTER,MEAN_ANOMALY,EPHEMERIS_TYPE,CLASSIFICATION_TYPE,NORAD_CAT_ID,ELEMENT_SET_NO,REV_AT_EPOCH,BSTAR,MEAN_MOTION_DOT,MEAN_MOTION_DDOT
STARLINK-37631,2026-123S,2026-06-11T22:00:01.999584,15.97378824,.00008928,53.1571,267.9914,46.2029,17.4650,0,U,69369,999,235,-.86436107E-3,-.395688E-2,.64208088E-4
STARLINK-37673,2026-123T,2026-06-11T22:00:01.999584,15.98141707,.00010244,53.1569,267.9731,47.4406,25.0410,0,U,69370,999,235,-.24909683E-2,-.1177218E-1,.43773441E-3
STARLINK-37645,2026-123U,2026-06-11T22:00:01.999584,15.97772389,.00010739,53.1570,267.9659,36.4519,39.3738,0,U,69371,999,235,-.44929261E-2,-.2064924E-1,.12281377E-2
STARLINK-37688,2026-123V,2026-06-11T22:00:01.999584,15.96691409,.000098,53.1569,267.9095,52.2865,50.5107,0,U,69372,999,235,-.43186562E-2,-.1872159E-1,.10097421E-2
STARLINK-37685,2026-123W,2026-06-11T22:00:01.999584,15.96643982,.00010387,53.1567,267.9005,39.5497,67.5588,0,U,69373,999,235,-.43157602E-2,-.186614E-1,.10031961E-2
STARLINK-37632,2026-123X,2026-06-11T22:00:01.999584,15.96573938,.00011144,53.1567,267.8933,49.7522,60.8284,0,U,69374,999,230,-.43609089E-2,-.1878292E-1,.10146464E-2
STARLINK-37454,2026-123Y,2026-06-11T22:00:01.999584,15.96579567,.00010545,53.1566,267.8782,49.4300,68.2698,0,U,69375,999,244,-.433682E-2,-.186861E-1,.10049798E-2
STARLINK-37485,2026-123Z,2026-06-11T22:00:01.999584,15.96612128,.00010973,53.1565,267.8695,45.1561,76.6551,0,U,69376,999,244,-.43322313E-2,-.1869956E-1,.10066797E-2
STARLINK-37439,2026-123AA,2026-06-11T22:00:01.999584,15.98308491,.00011375,53.1560,267.8364,55.0348,82.6789,0,U,69377,999,230,-.3881373E-2,-.1840738E-1,.99565357E-3
STARLINK-37376,2026-123AB,2026-06-11T22:00:01.999584,15.97342946,.00011331,53.1561,267.8400,48.2885,87.5726,0,U,69378,999,244,-.40635763E-2,-.182657E-1,.97120302E-3
STARLINK-37383,2026-123AC,2026-06-11T22:00:01.999584,15.98236255,.0001068,53.1554,267.7906,52.3192,107.0290,0,U,69379,999,244,-.39098463E-2,-.1846671E-1,.10008533E-2
STARLINK-37411,2026-123AD,2026-06-11T22:00:01.999584,15.97436689,.00010841,53.1560,267.8257,47.8120,94.6843,0,U,69380,999,244,-.40824607E-2,-.1844348E-1,.98987107E-3
STARLINK-37427,2026-123AE,2026-06-11T22:00:01.999584,15.98092058,.0001076,53.1558,267.8039,48.8355,104.1975,0,U,69381,999,235,-.38093648E-2,-.1785592E-1,.93864943E-3
QIANFAN-165,2026-124A,2026-06-11T19:53:45.668256,14.25644253,.00026199,88.9985,2.6492,184.6823,175.4347,0,U,69382,999,105,.42237967E-4,.115E-5,0
QIANFAN-166,2026-124B,2026-06-11T11:27:19.991808,14.25623990,.0001742,88.9986,2.6893,196.1379,163.9759,0,U,69383,999,100,.9578E-4,.241E-5,0
QIANFAN-167,2026-124C,2026-06-10T21:55:30.614592,14.19974316,.00036045,88.9989,2.7536,293.9957,66.0856,0,U,69384,999,92,-.78870914E+0,-.1561002E-1,0
QIANFAN-168,2026-124D,2026-06-10T20:15:26.421120,14.22619835,.00057451,88.9981,2.7619,147.2677,212.8872,0,U,69385,999,91,-.92275734E+0,-.1914124E-1,0
QIANFAN-169,2026-124E,2026-06-10T21:56:06.647712,14.22235421,.00072145,88.9980,2.7539,173.4169,186.7118,0,U,69386,999,92,-.89812046E+0,-.185401E-1,0
QIANFAN-170,2026-124F,2026-06-10T20:15:22.457088,14.22716838,.00073437,88.9981,2.7622,135.9027,224.2751,0,U,69387,999,91,-.92773747E+0,-.1927219E-1,0
QIANFAN-171,2026-124G,2026-06-10T20:14:44.045376,14.21967593,.00090503,88.9982,2.7620,172.8482,187.2840,0,U,69388,999,91,-.88070283E+0,-.1812081E-1,0
QIANFAN-172,2026-124H,2026-06-10T20:15:36.967104,14.23032199,.00065718,88.9979,2.7620,144.9469,215.2157,0,U,69389,999,91,-.94647039E+0,-.1974196E-1,0
QIANFAN-173,2026-124J,2026-06-10T20:15:25.062048,14.20891229,.00215566,88.9989,2.7662,27.5748,332.6581,0,U,69390,999,91,-.67101907E+0,-.1427296E-1,0
QIANFAN-174,2026-124K,2026-06-11T13:06:52.024608,14.26655241,.00017757,88.9986,2.6812,165.3397,194.7848,0,U,69391,999,101,.82626756E-4,.214E-5,0
QIANFAN-175,2026-124L,2026-06-10T23:36:20.452320,14.22043621,.00088953,88.9981,2.7458,183.7161,176.3966,0,U,69392,999,93,-.86425771E+0,-.1762832E-1,0
QIANFAN-176,2026-124M,2026-06-10T23:36:11.974752,14.21408117,.0011326,88.9980,2.7458,168.0633,192.0828,0,U,69393,999,93,-.80747588E+0,-.163714E-1,0
QIANFAN-177,2026-124N,2026-06-11T23:12:43.009344,14.26675045,.00017349,88.9985,2.6327,165.7716,194.3527,0,U,69394,999,107,.52185459E-4,.141E-5,0
QIANFAN-178,2026-124P,2026-06-10T23:36:16.016544,14.21589410,.00092439,88.9981,2.7458,179.2577,180.8630,0,U,69395,999,93,-.83847437E+0,-.1700532E-1,0
QIANFAN-179,2026-124Q,2026-06-11T19:50:39.998112,14.26682037,.00016754,88.9985,2.6488,166.4737,193.6502,0,U,69396,999,105,.41494765E-4,.115E-5,0
QIANFAN-180,2026-124R,2026-06-11T23:12:37.336320,14.26687636,.00016814,88.9985,2.6328,167.2065,192.9172,0,U,69397,999,107,.54698477E-4,.147E-5,0
